BEIDOU-3 M19            
1 44864U 19090A   26061.26275238 -.00000008  00000+0  00000+0 0  9992
2 44864  56.4657  66.3234 0020408 291.3317 195.2232  1.86231220 42246
BEIDOU-3 M20            
1 44865U 19090B   26062.82614198 -.00000021  00000+0  00000+0 0  9993
2 44865  56.4687  66.3059 0017813 302.9430 241.3938  1.86231297 42257
BEIDOU-3 G2             
1 45344U 20017A   26062.95894329 -.00000151  00000+0  00000+0 0  9991
2 45344   2.6539  45.5725 0002747 303.0146 238.3726  1.00271213 22206
COSMOS 2545 [GLONASS-M] 
1 45358U 20018A   26062.64108890 -.00000049  00000+0  00000+0 0  9990
2 45358  64.4181 316.1306 0008257 250.5156 109.4558  2.13102285 46418
BEIDOU-3 G3             
1 45807U 20040A   26062.96492332 -.00000366  00000+0  00000+0 0  9998
2 45807   2.1890  67.1203 0004291 315.8381 236.6035  1.00275638 21011
NAVSTAR 79 (USA 304)    
1 45854U 20041A   26062.27516370 -.00000078  00000+0  00000+0 0  9994
2 45854  56.6052  33.0526 0061365 205.2583 328.7601  2.00560606 41914
GALAXY 30 (G-30)        
1 46114U 20056C   26062.91812309  .00000024  00000+0  00000+0 0  9992
2 46114   0.0164 121.4187 0002188 220.8162  24.9448  1.00272568 20232
COSMOS 2547 [GLONASS-K] 
1 46805U 20075A   26061.42179443 -.00000012  00000+0  00000+0 0  9998
2 46805  64.5998 196.0353 0006707 229.5207 130.3796  2.13100073 41630
NAVSTAR 80 (USA 309)    
1 46826U 20078A   26062.80519442 -.00000007  00000+0  00000+0 0  9998
2 46826  54.0018 215.0499 0068191 204.2889 325.6484  2.00565522 39397
NAVSTAR 81 (USA 319)    
1 48859U 21054A   26062.49128030 -.00000100  00000+0  00000+0 0  9999
2 48859  55.2215 336.7106 0023864 232.0768 255.4185  2.00575580 34631
QZS-1R (MICHIBIKI-1R)   
1 49336U 21096A   26062.70530965 -.00000260  00000+0  00000+0 0  9991
2 49336  37.2425  81.1405 0747355 269.6972 198.6025  1.00291339 15950
GSAT0223 (GALILEO 27)   
1 49809U 21116A   26048.03988929 -.00000078  00000+0  00000+0 0  9993
2 49809  57.2005 344.9238 0002865 278.1950 264.6358  1.70475508 26130
GSAT0224 (GALILEO 28)   
1 49810U 21116B   26054.89517960 -.00000088  00000+0  00000+0 0  9990
2 49810  57.1984 344.7369 0002182 291.9502 250.7131  1.70475193 26278
COSMOS 2557 [GLONASS-K] 
1 52984U 22075A   26062.52543027 -.00000052  00000+0  00000+0 0  9994
2 52984  64.3599 318.2098 0011629 283.5045  76.4245  2.13101658 28468
COSMOS 2559 [GLONASS-K] 
1 54031U 22130A   26059.99848280 -.00000049  00000+0  00000+0 0  9993
2 54031  64.3338 318.3857 0010601 182.1671 177.8809  2.13101169 26384
COSMOS 2564 [GLONASS-M] 
1 54377U 22161A   26061.71905072 -.00000011  00000+0  00000+0 0  9995
2 54377  64.7417 196.2427 0009386 209.4711 150.4350  2.13101914 25364
NAVSTAR 82 (USA 343)    
1 55268U 23009A   26062.25600392 -.00000002  00000+0  00000+0 0  9994
2 55268  55.1094 152.6829 0004614 335.9551  20.9517  2.00549255 23114
